start=new Date('2022-04-04T00:00:00.000Z').valueOf();
sats=[{"CLASSIFICATION_TYPE":"U","ARG_OF_PERICENTER":"62.5102","COUNTRY_CODE":"US","MEAN_MOTION_DDOT":"0.0000000000000","MEAN_ANOMALY":"297.6056","PERIOD":"95.593","OBJECT_NAME":"STARLINK-1395","SITE":"AFETR","REV_AT_EPOCH":"10244","SEMIMAJOR_AXIS":"6925.405","BSTAR":"-0.00008018600000","ECCENTRICITY":"0.00016570","EPHEMERIS_TYPE":"0","NORAD_CAT_ID":"45680","APOAPSIS":"548.418","RCS_SIZE":"LARGE","GP_ID":"200377062","REF_FRAME":"TEME","RA_OF_ASC_NODE":"22.4179","TIME_SYSTEM":"UTC","FILE":"3386965","CENTER_NAME":"EARTH","OBJECT_TYPE":"PAYLOAD","OBJECT_ID":"2020-035Z","MEAN_MOTION_DOT":"-0.00001475","TLE_LINE1":"1 45680U 20035Z   22093.83716042 -.00001475  00000-0 -80186-4 0  9996","PERIAPSIS":"546.123","MEAN_MOTION":"15.06381459","MEAN_ELEMENT_THEORY":"SGP4","EPOCH":"2022-04-03T20:05:30.660288","TLE_LINE2":"2 45680  53.0555  22.4179 0001657  62.5102 297.6056 15.06381459102446","LAUNCH_DATE":"2020-06-04","INCLINATION":"53.0555","DECAY_DATE":null,"ELEMENT_SET_NO":"999"},{"MEAN_MOTION_DDOT":"0.0000000000000","COUNTRY_CODE":"US","OBJECT_NAME":"STARLINK-1396","MEAN_ANOMALY":"304.5386","PERIOD":"95.593","ARG_OF_PERICENTER":"55.5739","CLASSIFICATION_TYPE":"U","BSTAR":"-0.00023649000000","ECCENTRICITY":"0.00014390","REV_AT_EPOCH":"10245","SITE":"AFETR","SEMIMAJOR_AXIS":"6925.389","FILE":"3386965","OBJECT_TYPE":"PAYLOAD","CENTER_NAME":"EARTH","NORAD_CAT_ID":"45681","APOAPSIS":"548.251","EPHEMERIS_TYPE":"0","TIME_SYSTEM":"UTC","GP_ID":"200377812","RA_OF_ASC_NODE":"22.4221","REF_FRAME":"TEME","RCS_SIZE":"LARGE","TLE_LINE2":"2 45681  53.0578  22.4221 0001439  55.5739 304.5386 15.06386802102458","LAUNCH_DATE":"2020-06-04","INCLINATION":"53.0578","EPOCH":"2022-04-03T20:00:11.679264","MEAN_ELEMENT_THEORY":"SGP4","PERIAPSIS":"546.257","MEAN_MOTION":"15.06386802","ELEMENT_SET_NO":"999","DECAY_DATE":null,"MEAN_MOTION_DOT":"-0.00003801","OBJECT_ID":"2020-035AA","TLE_LINE1":"1 45681U 20035AA  22093.83346851 -.00003801  00000-0 -23649-3 0  9999"},{"ECCENTRICITY":"0.00016040","BSTAR":"-0.00006356400000","SEMIMAJOR_AXIS":"6925.389","SITE":"AFETR","REV_AT_EPOCH":"10239","PERIOD":"95.593","MEAN_ANOMALY":"309.3731","OBJECT_NAME":"STARLINK-1397","COUNTRY_CODE":"US","MEAN_MOTION_DDOT":"0.0000000000000","CLASSIFICATION_TYPE":"U","ARG_OF_PERICENTER":"50.7400","ELEMENT_SET_NO":"999","DECAY_DATE":null,"EPOCH":"2022-04-03T12:13:06.522528","INCLINATION":"53.0544","TLE_LINE2":"2 45682  53.0544  23.8720 0001604  50.7400 309.3731 15.06386851102391","LAUNCH_DATE":"2020-06-04","PERIAPSIS":"546.143","MEAN_MOTION":"15.06386851","MEAN_ELEMENT_THEORY":"SGP4","TLE_LINE1":"1 45682U 20035AB  22093.50910327 -.00001228  00000-0 -63564-4 0  9991","OBJECT_ID":"2020-035AB","MEAN_MOTION_DOT":"-0.00001228","OBJECT_TYPE":"PAYLOAD","CENTER_NAME":"EARTH","FILE":"3386965","RA_OF_ASC_NODE":"23.8720","GP_ID":"200376560","REF_FRAME":"TEME","TIME_SYSTEM":"UTC","RCS_SIZE":"LARGE","EPHEMERIS_TYPE":"0","NORAD_CAT_ID":"45682","APOAPSIS":"548.365"},{"TLE_LINE1":"1 45683U 20035AC  22093.82242036 -.00001784  00000-0 -10093-3 0  9997","MEAN_MOTION_DOT":"-0.00001784","OBJECT_ID":"2020-035AC","DECAY_DATE":null,"ELEMENT_SET_NO":"999","TLE_LINE2":"2 45683  53.0568  22.4902 0001620  56.1655 303.9488 15.06378985102450","LAUNCH_DATE":"2020-06-04","INCLINATION":"53.0568","EPOCH":"2022-04-03T19:44:17.119104","MEAN_ELEMENT_THEORY":"SGP4","PERIAPSIS":"546.156","MEAN_MOTION":"15.06378985","TIME_SYSTEM":"UTC","RA_OF_ASC_NODE":"22.4902","GP_ID":"200376810","REF_FRAME":"TEME","RCS_SIZE":"LARGE","APOAPSIS":"548.400","NORAD_CAT_ID":"45683","EPHEMERIS_TYPE":"0","CENTER_NAME":"EARTH","OBJECT_TYPE":"PAYLOAD","FILE":"3386965","SEMIMAJOR_AXIS":"6925.413","REV_AT_EPOCH":"10245","SITE":"AFETR","ECCENTRICITY":"0.00016200","BSTAR":"-0.00010093000000","ARG_OF_PERICENTER":"56.1655","CLASSIFICATION_TYPE":"U","OBJECT_NAME":"STARLINK-1399","PERIOD":"95.593","MEAN_ANOMALY":"303.9488","MEAN_MOTION_DDOT":"0.0000000000000","COUNTRY_CODE":"US"},{"ARG_OF_PERICENTER":"60.5843","CLASSIFICATION_TYPE":"U","OBJECT_NAME":"STARLINK-1401","MEAN_ANOMALY":"299.5299","PERIOD":"95.593","MEAN_MOTION_DDOT":"0.0000000000000","COUNTRY_CODE":"US","SEMIMAJOR_AXIS":"6925.398","SITE":"AFETR","REV_AT_EPOCH":"10241","ECCENTRICITY":"0.00015400","BSTAR":"0.00006733200000","RCS_SIZE":"LARGE","TIME_SYSTEM":"UTC","REF_FRAME":"TEME","GP_ID":"200377562","RA_OF_ASC_NODE":"23.7656","NORAD_CAT_ID":"45684","APOAPSIS":"548.330","EPHEMERIS_TYPE":"0","CENTER_NAME":"EARTH","OBJECT_TYPE":"PAYLOAD","FILE":"3386965","TLE_LINE1":"1 45684U 20035AD  22093.53490666  .00000721  00000-0  67332-4 0  9997","MEAN_MOTION_DOT":"0.00000721","OBJECT_ID":"2020-035AD","ELEMENT_SET_NO":"999","DECAY_DATE":null,"MEAN_MOTION":"15.06383749","PERIAPSIS":"546.197","MEAN_ELEMENT_THEORY":"SGP4","LAUNCH_DATE":"2020-06-04","TLE_LINE2":"2 45684  53.0553  23.7656 0001540  60.5843 299.5299 15.06383749102414","INCLINATION":"53.0553","EPOCH":"2022-04-03T12:50:15.935424"},{"CLASSIFICATION_TYPE":"U","ARG_OF_PERICENTER":"52.7843","COUNTRY_CODE":"US","MEAN_MOTION_DDOT":"0.0000000000000","MEAN_ANOMALY":"307.3282","PERIOD":"95.593","OBJECT_NAME":"STARLINK-1402","REV_AT_EPOCH":"10245","SITE":"AFETR","SEMIMAJOR_AXIS":"6925.399","BSTAR":"-0.00008914200000","ECCENTRICITY":"0.00014870","EPHEMERIS_TYPE":"0","APOAPSIS":"548.294","NORAD_CAT_ID":"45685","REF_FRAME":"TEME","GP_ID":"200377313","RA_OF_ASC_NODE":"22.6071","TIME_SYSTEM":"UTC","RCS_SIZE":"LARGE","FILE":"3386965","OBJECT_TYPE":"PAYLOAD","CENTER_NAME":"EARTH","OBJECT_ID":"2020-035AE","MEAN_MOTION_DOT":"-0.00001608","TLE_LINE1":"1 45685U 20035AE  22093.79661765 -.00001608  00000-0 -89142-4 0  9996","EPOCH":"2022-04-03T19:07:07.764960","LAUNCH_DATE":"2020-06-04","TLE_LINE2":"2 45685  53.0559  22.6071 0001487  52.7843 307.3282 15.06383573102452","INCLINATION":"53.0559","PERIAPSIS":"546.234","MEAN_ELEMENT_THEORY":"SGP4","MEAN_MOTION":"15.06383573","DECAY_DATE":null,"ELEMENT_SET_NO":"999"},{"FILE":"3386965","CENTER_NAME":"EARTH","OBJECT_TYPE":"PAYLOAD","EPHEMERIS_TYPE":"0","APOAPSIS":"548.415","NORAD_CAT_ID":"45686","RCS_SIZE":"LARGE","GP_ID":"200376061","RA_OF_ASC_NODE":"23.8138","REF_FRAME":"TEME","TIME_SYSTEM":"UTC","PERIAPSIS":"546.036","MEAN_MOTION":"15.06396117","MEAN_ELEMENT_THEORY":"SGP4","EPOCH":"2022-04-03T12:34:20.426592","LAUNCH_DATE":"2020-06-04","TLE_LINE2":"2 45686  53.0557  23.8138 0001717  53.8021 306.3126 15.06396117102414","INCLINATION":"53.0557","ELEMENT_SET_NO":"999","DECAY_DATE":null,"OBJECT_ID":"2020-035AF","MEAN_MOTION_DOT":"-0.00001505","TLE_LINE1":"1 45686U 20035AF  22093.52384753 -.00001505  00000-0 -82134-4 0  9997","COUNTRY_CODE":"US","MEAN_MOTION_DDOT":"0.0000000000000","PERIOD":"95.592","MEAN_ANOMALY":"306.3126","OBJECT_NAME":"STARLINK-1404","CLASSIFICATION_TYPE":"U","ARG_OF_PERICENTER":"53.8021","BSTAR":"-0.00008213400000","ECCENTRICITY":"0.00017170","REV_AT_EPOCH":"10241","SITE":"AFETR","SEMIMAJOR_AXIS":"6925.360"},{"TIME_SYSTEM":"UTC","GP_ID":"200376311","RA_OF_ASC_NODE":"23.8364","REF_FRAME":"TEME","RCS_SIZE":"LARGE","NORAD_CAT_ID":"45688","APOAPSIS":"548.450","EPHEMERIS_TYPE":"0","OBJECT_TYPE":"PAYLOAD","CENTER_NAME":"EARTH","FILE":"3386965","TLE_LINE1":"1 45688U 20035AH  22093.51647063  .00001083  00000-0  91615-4 0  9997","MEAN_MOTION_DOT":"0.00001083","OBJECT_ID":"2020-035AH","DECAY_DATE":null,"ELEMENT_SET_NO":"999","LAUNCH_DATE":"2020-06-04","TLE_LINE2":"2 45688  53.0543  23.8364 0001746  48.4228 311.6910 15.06391054102407","INCLINATION":"53.0543","EPOCH":"2022-04-03T12:23:43.062432","PERIAPSIS":"546.032","MEAN_MOTION":"15.06391054","MEAN_ELEMENT_THEORY":"SGP4","ARG_OF_PERICENTER":"48.4228","CLASSIFICATION_TYPE":"U","OBJECT_NAME":"STARLINK-1408","MEAN_ANOMALY":"311.6910","PERIOD":"95.593","MEAN_MOTION_DDOT":"0.0000000000000","COUNTRY_CODE":"US","SEMIMAJOR_AXIS":"6925.376","SITE":"AFETR","REV_AT_EPOCH":"10240","ECCENTRICITY":"0.00017460","BSTAR":"0.00009161500000"},{"LAUNCH_DATE":"2020-06-04","TLE_LINE2":"2 45689  53.0576  22.2456 0001468  65.4755 294.6387 15.06398045102375","INCLINATION":"53.0576","EPOCH":"2022-04-03T20:58:34.025952","MEAN_ELEMENT_THEORY":"SGP4","PERIAPSIS":"546.203","MEAN_MOTION":"15.06398045","ELEMENT_SET_NO":"999","DECAY_DATE":null,"MEAN_MOTION_DOT":"-0.00000530","OBJECT_ID":"2020-035AJ","TLE_LINE1":"1 45689U 20035AJ  22093.87400493 -.00000530  00000-0 -16691-4 0  9990","FILE":"3386965","CENTER_NAME":"EARTH","OBJECT_TYPE":"PAYLOAD","NORAD_CAT_ID":"45689","APOAPSIS":"548.236","EPHEMERIS_TYPE":"0","TIME_SYSTEM":"UTC","REF_FRAME":"TEME","GP_ID":"200377063","RA_OF_ASC_NODE":"22.2456","RCS_SIZE":"LARGE","BSTAR":"-0.00001669100000","ECCENTRICITY":"0.00014680","REV_AT_EPOCH":"10237","SITE":"AFETR","SEMIMAJOR_AXIS":"6925.355","MEAN_MOTION_DDOT":"0.0000000000000","COUNTRY_CODE":"US","OBJECT_NAME":"STARLINK-1413","PERIOD":"95.592","MEAN_ANOMALY":"294.6387","ARG_OF_PERICENTER":"65.4755","CLASSIFICATION_TYPE":"U"},{"SEMIMAJOR_AXIS":"6927.903","REV_AT_EPOCH":"10242","SITE":"AFETR","ECCENTRICITY":"0.00014200","BSTAR":"-0.00014189000000","ARG_OF_PERICENTER":"64.5387","CLASSIFICATION_TYPE":"U","OBJECT_NAME":"STARLINK-1414","PERIOD":"95.645","MEAN_ANOMALY":"295.5748","MEAN_MOTION_DDOT":"0.0000000000000","COUNTRY_CODE":"US","TLE_LINE1":"1 45690U 20035AK  22093.87918132 -.00002345  00000-0 -14189-3 0  9991","MEAN_MOTION_DOT":"-0.00002345","OBJECT_ID":"2020-035AK","ELEMENT_SET_NO":"999","DECAY_DATE":null,"MEAN_MOTION":"15.05566989","PERIAPSIS":"548.784","MEAN_ELEMENT_THEORY":"SGP4","TLE_LINE2":"2 45690  53.0014  22.2322 0001420  64.5387 295.5748 15.05566989102425","INCLINATION":"53.0014","LAUNCH_DATE":"2020-06-04","EPOCH":"2022-04-03T21:06:01.266048","RCS_SIZE":"LARGE","TIME_SYSTEM":"UTC","RA_OF_ASC_NODE":"22.2322","GP_ID":"200377813","REF_FRAME":"TEME","NORAD_CAT_ID":"45690","APOAPSIS":"550.752","EPHEMERIS_TYPE":"0","OBJECT_TYPE":"PAYLOAD","CENTER_NAME":"EARTH","FILE":"3386965"}];
